FENGYUN 1C DEB          
1 29912U 99025HJ  17345.80228670  .00000945  00000-0  44245-3 0  9991
2 29912  98.9019  21.5645 0056176  66.1797 357.4018 14.21825359563557
